     2.100          NAVIGATION                              RINEX VERSION / TYPE
fic2rin                                 11/17/2017 00:14:11 PGM / RUN BY / DATE
                                                            END OF HEADER
23 17 11 16 22  0  0.0 -.218695960939D-03 -.113686837722D-12  .000000000000D+00
     .280000000000D+02  .262187500000D+02  .472376819248D-08  .203792690146D+01
     .135228037834D-05  .118509067688D-01  .128839164972D-04  .515365583801D+04
     .424800000000D+06 -.290572643280D-06  .283604427736D+01 -.139698386192D-06
     .944303056436D+00  .124781250000D+03 -.241368437361D+01 -.799997608826D-08
    -.219294848796D-09  .100000000000D+01  .197500000000D+04  .000000000000D+00
     .240000000000D+01  .000000000000D+00 -.204890966415D-07  .280000000000D+02
     .417606000000D+06  .400000000000D+01
24 17 11 16 22  0  0.0 -.423104502261D-04 -.454747350886D-12  .000000000000D+00
     .270000000000D+02  .109125000000D+03  .509199781643D-08  .151036710156D+01
     .579841434956D-05  .629230379127D-02  .531785190105D-05  .515367452621D+04
     .424800000000D+06 -.186264514923D-07 -.242592489445D+01  .184401869774D-06
     .943753215750D+00  .266937500000D+03  .475921828717D+00 -.856142804641D-08
     .241795786051D-09  .100000000000D+01  .197500000000D+04  .000000000000D+00
     .240000000000D+01  .000000000000D+00  .279396772385D-08  .270000000000D+02
     .417606000000D+06  .400000000000D+01
25 17 11 16 22  0  0.0 -.490691047162D-03 -.625277607469D-11  .000000000000D+00
     .220000000000D+02 -.725000000000D+02  .450983070969D-08 -.465786094432D+00
    -.382214784622D-05  .669410370756D-02  .299140810966D-05  .515372506142D+04
     .424800000000D+06 -.316649675369D-07 -.133811323319D+01  .931322574615D-07
     .975642610631D+00  .327281250000D+03  .809758853729D+00 -.837106297409D-08
    -.396802242692D-09  .100000000000D+01  .197500000000D+04  .000000000000D+00
     .240000000000D+01  .000000000000D+00  .558793544769D-08  .220000000000D+02
     .417606000000D+06  .400000000000D+01
26 17 11 16 22  0  0.0 -.359702389687D-03  .138697942020D-10  .000000000000D+00
     .230000000000D+02 -.742500000000D+02  .483198698594D-08 -.949153080447D+00
    -.381469726562D-05  .222644663882D-02  .304728746414D-05  .515356051445D+04
     .424800000000D+06 -.111758708954D-07 -.135663245506D+01 -.204890966415D-07
     .957304274194D+00  .320312500000D+03 -.839569197713D-01 -.847749597888D-08
    -.361800784741D-09  .100000000000D+01  .197500000000D+04  .000000000000D+00
     .240000000000D+01  .000000000000D+00  .745058059692D-08  .230000000000D+02
     .417606000000D+06  .400000000000D+01
27 17 11 16 22  0  0.0  .348295550793D-03  .352429196937D-11  .000000000000D+00
     .240000000000D+02 -.661562500000D+02  .372051211712D-08 -.282146778502D+01
    -.339187681675D-05  .505262007937D-02  .123437494040D-04  .515368181801D+04
     .424800000000D+06 -.409781932831D-07 -.298527014597D+00  .167638063431D-07
     .976561936147D+00  .148937500000D+03  .370515023289D+00 -.755460039372D-08
     .457161899771D-10  .100000000000D+01  .197500000000D+04  .000000000000D+00
     .240000000000D+01  .000000000000D+00  .186264514923D-08  .240000000000D+02
     .417606000000D+06  .400000000000D+01
28 17 11 16 22  0  0.0  .663130078465D-03  .318323145621D-11  .000000000000D+00
     .800000000000D+02 -.826250000000D+02  .404302555110D-08 -.196719203278D+01
    -.402145087719D-05  .199976403965D-01  .321492552757D-05  .515366154671D+04
     .424800000000D+06  .359490513802D-06 -.125737618441D+01  .275671482086D-06
     .987171018058D+00  .329500000000D+03 -.155257590594D+01 -.784461247388D-08
    -.415731602604D-09  .100000000000D+01  .197500000000D+04  .000000000000D+00
     .340000000000D+01  .000000000000D+00 -.111758708954D-07  .800000000000D+02
     .417606000000D+06  .400000000000D+01
29 17 11 16 22  0  0.0  .537382438779D-03 -.488853402203D-11  .000000000000D+00
     .690000000000D+02 -.525937500000D+02  .369872549533D-08 -.165919958272D+01
    -.276416540146D-05  .431621563621D-03  .120289623737D-04  .515378119469D+04
     .424800000000D+06  .335276126862D-07 -.235256792213D+00 -.298023223877D-07
     .982951792619D+00  .161562500000D+03  .997413083081D+00 -.754781439677D-08
     .189293599124D-10  .100000000000D+01  .197500000000D+04  .000000000000D+00
     .240000000000D+01  .000000000000D+00 -.102445483208D-07  .690000000000D+02
     .417606000000D+06  .400000000000D+01
30 17 11 16 22  0  0.0  .127491541207D-03 -.261479726760D-11  .000000000000D+00
     .190000000000D+02  .102750000000D+03  .506235372450D-08  .594651629513D+00
     .528059899807D-05  .300201319624D-02  .443495810032D-05  .515360672569D+04
     .424800000000D+06 -.372529029846D-07 -.233308886361D+01 -.335276126862D-07
     .946305595255D+00  .282531250000D+03 -.305884412610D+01 -.854785605251D-08
     .242867259253D-09  .100000000000D+01  .197500000000D+04  .000000000000D+00
     .240000000000D+01  .000000000000D+00  .372529029846D-08  .190000000000D+02
     .417606000000D+06  .400000000000D+01
31 17 11 16 22  0  0.0  .161664560437D-03 -.250111042988D-11  .000000000000D+00
     .490000000000D+02  .966875000000D+02  .467983779117D-08  .342973785206D+00
     .495836138725D-05  .875332439318D-02  .430457293987D-05  .515355645561D+04
     .424800000000D+06  .152736902237D-06 -.235778593879D+01 -.726431608200D-07
     .965354285212D+00  .296937500000D+03 -.220871646636D+00 -.841177895579D-08
     .282511767749D-09  .100000000000D+01  .197500000000D+04  .000000000000D+00
     .240000000000D+01  .000000000000D+00 -.135041773319D-07  .490000000000D+02
     .417606000000D+06  .400000000000D+01
32 17 11 16 22  0  0.0 -.523850321770D-03 -.306954461848D-11  .000000000000D+00
     .190000000000D+02  .355625000000D+02  .435446709532D-08 -.217602161658D+01
     .187754631042D-05  .147224101238D-02  .120811164379D-04  .515361256027D+04
     .424800000000D+06  .372529029846D-07  .283989454608D+01 -.298023223877D-07
     .957905451601D+00  .145062500000D+03 -.262517721879D+01 -.781425406648D-08
    -.220366321999D-09  .100000000000D+01  .197500000000D+04  .000000000000D+00
     .240000000000D+01  .000000000000D+00  .465661287308D-09  .190000000000D+02
     .417606000000D+06  .400000000000D+01
 2 17 11 16 21 59 44.0  .279114581645D-03 -.966338120634D-11  .000000000000D+00
     .170000000000D+02  .378437500000D+02  .485663086960D-08  .163447089242D+01
     .179931521416D-05  .172862067120D-01  .785291194916D-05  .515362180328D+04
     .424784000000D+06 -.350177288055D-06  .700764235860D+00 -.376254320145D-06
     .948162436211D+00  .221062500000D+03 -.193867036309D+01 -.827141596625D-08
     .607525305868D-09  .100000000000D+01  .197500000000D+04  .000000000000D+00
     .240000000000D+01  .000000000000D+00 -.204890966415D-07  .170000000000D+02
     .420606000000D+06  .400000000000D+01
14 17 11 16 21 59 44.0 -.887075439095D-04 -.795807864051D-12  .000000000000D+00
     .230000000000D+02  .535000000000D+02  .415195866003D-08  .309074494490D+01
     .271573662758D-05  .926070916466D-02  .124145299196D-04  .515372337914D+04
     .424784000000D+06  .100582838058D-06  .292400785765D+01 -.124797224998D-06
     .961952662744D+00  .137812500000D+03 -.194957278202D+01 -.760995984252D-08
    -.169292766009D-09  .100000000000D+01  .197500000000D+04  .000000000000D+00
     .240000000000D+01  .000000000000D+00 -.977888703346D-08  .230000000000D+02
     .420636000000D+06  .400000000000D+01
17 17 11 16 21 59 44.0 -.144114717841D-03  .261479726760D-11  .000000000000D+00
     .180000000000D+02 -.737187500000D+02  .357014871102D-08 -.289084499550D+01
    -.367686152458D-05  .121448050486D-01  .118631869555D-04  .515372036171D+04
     .424784000000D+06  .130385160446D-06 -.245591598927D+00 -.540167093277D-07
     .981757729624D+00  .159250000000D+03 -.183199681544D+01 -.730173271790D-08
     .978612191697D-10  .100000000000D+01  .197500000000D+04  .000000000000D+00
     .240000000000D+01  .000000000000D+00 -.111758708954D-07  .180000000000D+02
     .422736000000D+06  .400000000000D+01
 2 17 11 16 23 59 44.0  .279044732451D-03 -.966338120634D-11  .000000000000D+00
     .590000000000D+02  .380312500000D+02  .467876631797D-08  .268472973916D+01
     .191107392311D-05  .172864958877D-01  .790879130363D-05  .515362031937D+04
     .431984000000D+06  .117346644402D-06  .700707133779D+00 -.201165676117D-06
     .948168707741D+00  .214687500000D+03 -.193871453883D+01 -.781175396234D-08
     .562166273625D-09  .100000000000D+01  .197500000000D+04  .000000000000D+00
     .240000000000D+01  .000000000000D+00 -.204890966415D-07  .590000000000D+02
     .424806000000D+06  .400000000000D+01
14 17 11 16 23 59 44.0 -.887131318450D-04 -.795807864051D-12  .000000000000D+00
     .610000000000D+02  .514687500000D+02  .421731852539D-08 -.214234871829D+01
     .263750553131D-05  .926239974797D-02  .117775052786D-04  .515372012901D+04
     .431984000000D+06  .137835741043D-06  .292395260031D+01  .186264514923D-08
     .961951839121D+00  .151125000000D+03 -.194951466614D+01 -.761960310134D-08
    -.839320675361D-10  .100000000000D+01  .197500000000D+04  .000000000000D+00
     .240000000000D+01  .000000000000D+00 -.977888703346D-08  .610000000000D+02
     .424806000000D+06  .400000000000D+01
17 17 11 16 23 59 44.0 -.144096091390D-03  .261479726760D-11  .000000000000D+00
     .190000000000D+02 -.675000000000D+02  .368408202823D-08 -.184075184764D+01
    -.347383320332D-05  .121449587168D-01  .120680779219D-04  .515371932793D+04
     .431984000000D+06  .303611159325D-06 -.245643749031D+00  .707805156708D-07
     .981757906637D+00  .157000000000D+03 -.183194458780D+01 -.741138014230D-08
    -.107147320259D-11  .100000000000D+01  .197500000000D+04  .000000000000D+00
     .240000000000D+01  .000000000000D+00 -.111758708954D-07  .190000000000D+02
     .424806000000D+06  .400000000000D+01
